[{"OBJECT_NAME":"STARLINK-34589","OBJECT_ID":"2025-144Z","EPOCH":"2026-03-09T12:47:38.138784","MEAN_MOTION":15.30202003,"ECCENTRICITY":0.00011559,"INCLINATION":53.1599,"RA_OF_ASC_NODE":169.2247,"ARG_OF_PERICENTER":144.3867,"MEAN_ANOMALY":215.7211,"EPHEMERIS_TYPE":0,"CLASSIFICATION_TYPE":"U","NORAD_CAT_ID":64747,"ELEMENT_SET_NO":999,"REV_AT_EPOCH":3986,"BSTAR":0.00076353672,"MEAN_MOTION_DOT":0.00022324,"MEAN_MOTION_DDOT":0},{"OBJECT_NAME":"COSMOS 249 DEB","OBJECT_ID":"1968-091AB","EPOCH":"2026-03-09T20:26:03.278112","MEAN_MOTION":13.65672942,"ECCENTRICITY":0.07422962,"INCLINATION":62.2701,"RA_OF_ASC_NODE":70.4053,"ARG_OF_PERICENTER":111.2229,"MEAN_ANOMALY":256.9701,"EPHEMERIS_TYPE":0,"CLASSIFICATION_TYPE":"U","NORAD_CAT_ID":3609,"ELEMENT_SET_NO":999,"REV_AT_EPOCH":69132,"BSTAR":0.00039134287,"MEAN_MOTION_DOT":2.2e-5,"MEAN_MOTION_DDOT":0}]
